ONEWEB-0716             
1 55177U 23004AP  24235.97127484  .00000112  00000+0  25561-3 0  9997
2 55177  87.9178 137.9752 0001810  72.1231 288.0098 13.17649254 80248
ONEWEB-0717             
1 55178U 23004AQ  24235.80163205  .00000113  00000+0  25716-3 0  9994
2 55178  87.9177 137.9720 0002827  77.5008 282.6440 13.17646878 80276
ONEWEB-0719             
1 55179U 23004AR  24235.96481347  .00000152  00000+0  35724-3 0  9995
2 55179  87.9177 137.9257 0001900  67.2687 292.8645 13.17651707 80246
ONEWEB-0530             
1 55796U 23029A   24235.91551471  .00000641  00000+0  15450-2 0  9994
2 55796  87.9197  46.4121 0002418  86.4520 273.6889 13.20767634 73599
ONEWEB-0534             
1 55797U 23029B   24235.90287431  .00000074  00000+0  14956-3 0  9997
2 55797  87.9198  46.4218 0001638  88.6499 271.4822 13.20770666 73592
ONEWEB-0556             
1 55798U 23029C   24235.90920600 -.00000070  00000+0 -20427-3 0  9998
2 55798  87.9197  46.4137 0001787  61.2876 298.8437 13.20772171 73591
ONEWEB-0562             
1 55799U 23029D   24235.89657264  .00000086  00000+0  17945-3 0  9996
2 55799  87.9197  46.4073 0002405  66.4564 293.6822 13.20768989 73593
ONEWEB-0563             
1 55800U 23029E   24235.89026738  .00000087  00000+0  18243-3 0  9998
2 55800  87.9199  46.4235 0001499  88.9633 271.1672 13.20770710 73584
